JILIN-1 GAOFEN 3A       
1 44312U 19032C   26191.54551010  .00006454  00000+0  20715-3 0  9995
2 44312  44.9739 228.3329 0004685  70.2294 289.9096 15.33133405391428
JILIN-1 GAOFEN 2A       
1 44777U 19075A   26191.85756735  .00008632  00000+0  21885-3 0  9991
2 44777  97.4965 276.2100 0005610  11.5812 348.5562 15.39938969368528
JILIN-1 GAOFEN 2B       
1 44836U 19086A   26191.83347936  .00003577  00000+0  16433-3 0  9992
2 44836  97.4877 263.6786 0012873 232.1169 127.8903 15.20968520364081
JILIN-1 GAOFEN 3E       
1 46457U 20065D   26191.87767531  .00051482  00000+0  48668-3 0  9996
2 46457  97.2224 245.0817 0010884  85.7927 274.4577 15.66776832323465
JILIN-1 GAOFEN 3F       
1 46458U 20065E   26191.81931745  .00043738  00000+0  46982-3 0  9993
2 46458  97.2181 242.2371 0012290  72.5298 287.7304 15.63563506323396
JILIN-1 GAOFEN 3G       
1 46459U 20065F   26191.86790890  .00087501  00000+0  55743-3 0  9994
2 46459  97.2234 249.5215 0004853 298.0901  61.9874 15.76151218323666
JILIN-1 GAOFEN 3H       
1 46460U 20065G   26191.83517442  .00064608  00000+0  49987-3 0  9999
2 46460  97.2188 245.6557 0005800 218.0337 142.0517 15.71671210323591
JILIN-1 GAOFEN 2D       
1 49256U 21086A   26191.80565343  .00002687  00000+0  16336-3 0  9990
2 49256  97.6499 314.5133 0034342  65.2229 295.2567 15.10845151264283
JILIN-1 GAOFEN 2F       
1 49338U 21097A   26191.85906322  .00001931  00000+0  12948-3 0  9990
2 49338  97.6719 318.0056 0019631 143.4398 216.8174 15.07927507259887
JILIN-1 GAOFEN 3D27     
1 52444U 22048B   26191.86581377  .00129660  00000+0  63396-3 0  9992
2 52444  97.5720 308.0646 0004728 255.2307 104.8438 15.81930122233214
JILIN-1 GAOFEN 3D28     
1 52445U 22048C   26191.80954926  .00189369  00000+0  73887-3 0  9999
2 52445  97.5659 308.2734 0004475 249.8826 110.1963 15.86558707233268
JILIN-1 GAOFEN 3D29     
1 52446U 22048D   26191.78804293  .00141560  00000+0  68561-3 0  9992
2 52446  97.5713 308.3436 0003979 234.8045 125.2851 15.82108573233222
JILIN-1 GAOFEN 3D31     
1 52448U 22048F   26191.78178191  .00255716  26535-4  78771-3 0  9994
2 52448  97.5685 309.6147 0005039 243.6073 116.4683 15.91761343233329
JILIN-1 GAOFEN 03D09    
1 53445U 22098B   26191.82245146  .00063274  00000+0  53061-3 0  9992
2 53445  97.5611 323.3251 0003086 247.9686 112.1248 15.69751665218337
JILIN-1 GAOFEN 03D43    
1 53448U 22098E   26191.80871363  .00075327  00000+0  54142-3 0  9992
2 53448  97.5600 324.4458 0003420 241.3937 118.6983 15.73394818218401
JILIN-1 GAOFEN 03D08    
1 54251U 22155A   26191.87375133  .00049092  00000+0  45836-3 0  9990
2 54251  97.6220 339.2151 0004023 243.2613 116.8236 15.67164010203529
