{"fetched_at":"2026-07-11T06:35:32.955Z","source":"https://celestrak.org/NORAD/elements/gp.php?NAME=JILIN&FORMAT=JSON","constellation":"jilin-1-gaofen","records":[{"OBJECT_NAME":"JILIN-1 GAOFEN 3A","OBJECT_ID":"2019-032C","EPOCH":"2026-07-10T13:05:32.072640","CLASSIFICATION_TYPE":"U","MEAN_MOTION":15.33133405,"ECCENTRICITY":0.0004685,"INCLINATION":44.9739,"RA_OF_ASC_NODE":228.3329,"ARG_OF_PERICENTER":70.2294,"MEAN_ANOMALY":289.9096,"EPHEMERIS_TYPE":0,"NORAD_CAT_ID":44312,"ELEMENT_SET_NO":999,"REV_AT_EPOCH":39142,"BSTAR":0.00020715,"MEAN_MOTION_DOT":0.00006454,"MEAN_MOTION_DDOT":0},{"OBJECT_NAME":"JILIN-1 GAOFEN 2A","OBJECT_ID":"2019-075A","EPOCH":"2026-07-10T20:34:53.819040","CLASSIFICATION_TYPE":"U","MEAN_MOTION":15.39938969,"ECCENTRICITY":0.000561,"INCLINATION":97.4965,"RA_OF_ASC_NODE":276.21,"ARG_OF_PERICENTER":11.5812,"MEAN_ANOMALY":348.5562,"EPHEMERIS_TYPE":0,"NORAD_CAT_ID":44777,"ELEMENT_SET_NO":999,"REV_AT_EPOCH":36852,"BSTAR":0.00021885,"MEAN_MOTION_DOT":0.00008632,"MEAN_MOTION_DDOT":0},{"OBJECT_NAME":"JILIN-1 GAOFEN 2B","OBJECT_ID":"2019-086A","EPOCH":"2026-07-10T20:00:12.616704","CLASSIFICATION_TYPE":"U","MEAN_MOTION":15.2096852,"ECCENTRICITY":0.0012873,"INCLINATION":97.4877,"RA_OF_ASC_NODE":263.6786,"ARG_OF_PERICENTER":232.1169,"MEAN_ANOMALY":127.8903,"EPHEMERIS_TYPE":0,"NORAD_CAT_ID":44836,"ELEMENT_SET_NO":999,"REV_AT_EPOCH":36408,"BSTAR":0.00016433,"MEAN_MOTION_DOT":0.00003577,"MEAN_MOTION_DDOT":0},{"OBJECT_NAME":"JILIN-1 GAOFEN 3E","OBJECT_ID":"2020-065D","EPOCH":"2026-07-10T21:03:51.146784","CLASSIFICATION_TYPE":"U","MEAN_MOTION":15.66776832,"ECCENTRICITY":0.0010884,"INCLINATION":97.2224,"RA_OF_ASC_NODE":245.0817,"ARG_OF_PERICENTER":85.7927,"MEAN_ANOMALY":274.4577,"EPHEMERIS_TYPE":0,"NORAD_CAT_ID":46457,"ELEMENT_SET_NO":999,"REV_AT_EPOCH":32346,"BSTAR":0.00048668,"MEAN_MOTION_DOT":0.00051482,"MEAN_MOTION_DDOT":0},{"OBJECT_NAME":"JILIN-1 GAOFEN 3F","OBJECT_ID":"2020-065E","EPOCH":"2026-07-10T19:39:49.027680","CLASSIFICATION_TYPE":"U","MEAN_MOTION":15.63563506,"ECCENTRICITY":0.001229,"INCLINATION":97.2181,"RA_OF_ASC_NODE":242.2371,"ARG_OF_PERICENTER":72.5298,"MEAN_ANOMALY":287.7304,"EPHEMERIS_TYPE":0,"NORAD_CAT_ID":46458,"ELEMENT_SET_NO":999,"REV_AT_EPOCH":32339,"BSTAR":0.00046982,"MEAN_MOTION_DOT":0.00043738,"MEAN_MOTION_DDOT":0},{"OBJECT_NAME":"JILIN-1 GAOFEN 3G","OBJECT_ID":"2020-065F","EPOCH":"2026-07-10T20:49:47.328960","CLASSIFICATION_TYPE":"U","MEAN_MOTION":15.76151218,"ECCENTRICITY":0.0004853,"INCLINATION":97.2234,"RA_OF_ASC_NODE":249.5215,"ARG_OF_PERICENTER":298.0901,"MEAN_ANOMALY":61.9874,"EPHEMERIS_TYPE":0,"NORAD_CAT_ID":46459,"ELEMENT_SET_NO":999,"REV_AT_EPOCH":32366,"BSTAR":0.00055743,"MEAN_MOTION_DOT":0.00087501,"MEAN_MOTION_DDOT":0},{"OBJECT_NAME":"JILIN-1 GAOFEN 3H","OBJECT_ID":"2020-065G","EPOCH":"2026-07-10T20:02:39.069888","CLASSIFICATION_TYPE":"U","MEAN_MOTION":15.7167121,"ECCENTRICITY":0.00058,"INCLINATION":97.2188,"RA_OF_ASC_NODE":245.6557,"ARG_OF_PERICENTER":218.0337,"MEAN_ANOMALY":142.0517,"EPHEMERIS_TYPE":0,"NORAD_CAT_ID":46460,"ELEMENT_SET_NO":999,"REV_AT_EPOCH":32359,"BSTAR":0.00049987,"MEAN_MOTION_DOT":0.00064608,"MEAN_MOTION_DDOT":0},{"OBJECT_NAME":"JILIN-1 GAOFEN 2D","OBJECT_ID":"2021-086A","EPOCH":"2026-07-10T19:20:08.456352","CLASSIFICATION_TYPE":"U","MEAN_MOTION":15.10845151,"ECCENTRICITY":0.0034342,"INCLINATION":97.6499,"RA_OF_ASC_NODE":314.5133,"ARG_OF_PERICENTER":65.2229,"MEAN_ANOMALY":295.2567,"EPHEMERIS_TYPE":0,"NORAD_CAT_ID":49256,"ELEMENT_SET_NO":999,"REV_AT_EPOCH":26428,"BSTAR":0.00016336,"MEAN_MOTION_DOT":0.00002687,"MEAN_MOTION_DDOT":0},{"OBJECT_NAME":"JILIN-1 GAOFEN 2F","OBJECT_ID":"2021-097A","EPOCH":"2026-07-10T20:37:03.062208","CLASSIFICATION_TYPE":"U","MEAN_MOTION":15.07927507,"ECCENTRICITY":0.0019631,"INCLINATION":97.6719,"RA_OF_ASC_NODE":318.0056,"ARG_OF_PERICENTER":143.4398,"MEAN_ANOMALY":216.8174,"EPHEMERIS_TYPE":0,"NORAD_CAT_ID":49338,"ELEMENT_SET_NO":999,"REV_AT_EPOCH":25988,"BSTAR":0.00012948,"MEAN_MOTION_DOT":0.00001931,"MEAN_MOTION_DDOT":0},{"OBJECT_NAME":"JILIN-1 GAOFEN 3D27","OBJECT_ID":"2022-048B","EPOCH":"2026-07-10T20:46:46.309728","CLASSIFICATION_TYPE":"U","MEAN_MOTION":15.81930122,"ECCENTRICITY":0.0004728,"INCLINATION":97.572,"RA_OF_ASC_NODE":308.0646,"ARG_OF_PERICENTER":255.2307,"MEAN_ANOMALY":104.8438,"EPHEMERIS_TYPE":0,"NORAD_CAT_ID":52444,"ELEMENT_SET_NO":999,"REV_AT_EPOCH":23321,"BSTAR":0.00063396,"MEAN_MOTION_DOT":0.0012966,"MEAN_MOTION_DDOT":0},{"OBJECT_NAME":"JILIN-1 GAOFEN 3D28","OBJECT_ID":"2022-048C","EPOCH":"2026-07-10T19:25:45.056064","CLASSIFICATION_TYPE":"U","MEAN_MOTION":15.86558707,"ECCENTRICITY":0.0004475,"INCLINATION":97.5659,"RA_OF_ASC_NODE":308.2734,"ARG_OF_PERICENTER":249.8826,"MEAN_ANOMALY":110.1963,"EPHEMERIS_TYPE":0,"NORAD_CAT_ID":52445,"ELEMENT_SET_NO":999,"REV_AT_EPOCH":23326,"BSTAR":0.00073887,"MEAN_MOTION_DOT":0.00189369,"MEAN_MOTION_DDOT":0},{"OBJECT_NAME":"JILIN-1 GAOFEN 3D29","OBJECT_ID":"2022-048D","EPOCH":"2026-07-10T18:54:46.909152","CLASSIFICATION_TYPE":"U","MEAN_MOTION":15.82108573,"ECCENTRICITY":0.0003979,"INCLINATION":97.5713,"RA_OF_ASC_NODE":308.3436,"ARG_OF_PERICENTER":234.8045,"MEAN_ANOMALY":125.2851,"EPHEMERIS_TYPE":0,"NORAD_CAT_ID":52446,"ELEMENT_SET_NO":999,"REV_AT_EPOCH":23322,"BSTAR":0.00068561,"MEAN_MOTION_DOT":0.0014156,"MEAN_MOTION_DDOT":0},{"OBJECT_NAME":"JILIN-1 GAOFEN 3D31","OBJECT_ID":"2022-048F","EPOCH":"2026-07-10T18:45:45.957024","CLASSIFICATION_TYPE":"U","MEAN_MOTION":15.91761343,"ECCENTRICITY":0.0005039,"INCLINATION":97.5685,"RA_OF_ASC_NODE":309.6147,"ARG_OF_PERICENTER":243.6073,"MEAN_ANOMALY":116.4683,"EPHEMERIS_TYPE":0,"NORAD_CAT_ID":52448,"ELEMENT_SET_NO":999,"REV_AT_EPOCH":23332,"BSTAR":0.00078771,"MEAN_MOTION_DOT":0.00255716,"MEAN_MOTION_DDOT":0.000026535},{"OBJECT_NAME":"JILIN-1 GAOFEN 03D09","OBJECT_ID":"2022-098B","EPOCH":"2026-07-10T19:44:19.806144","CLASSIFICATION_TYPE":"U","MEAN_MOTION":15.69751665,"ECCENTRICITY":0.0003086,"INCLINATION":97.5611,"RA_OF_ASC_NODE":323.3251,"ARG_OF_PERICENTER":247.9686,"MEAN_ANOMALY":112.1248,"EPHEMERIS_TYPE":0,"NORAD_CAT_ID":53445,"ELEMENT_SET_NO":999,"REV_AT_EPOCH":21833,"BSTAR":0.00053061,"MEAN_MOTION_DOT":0.00063274,"MEAN_MOTION_DDOT":0},{"OBJECT_NAME":"JILIN-1 GAOFEN 03D43","OBJECT_ID":"2022-098E","EPOCH":"2026-07-10T19:24:32.857632","CLASSIFICATION_TYPE":"U","MEAN_MOTION":15.73394818,"ECCENTRICITY":0.000342,"INCLINATION":97.56,"RA_OF_ASC_NODE":324.4458,"ARG_OF_PERICENTER":241.3937,"MEAN_ANOMALY":118.6983,"EPHEMERIS_TYPE":0,"NORAD_CAT_ID":53448,"ELEMENT_SET_NO":999,"REV_AT_EPOCH":21840,"BSTAR":0.00054142,"MEAN_MOTION_DOT":0.00075327,"MEAN_MOTION_DDOT":0},{"OBJECT_NAME":"JILIN-1 GAOFEN 03D08","OBJECT_ID":"2022-155A","EPOCH":"2026-07-10T20:58:12.114912","CLASSIFICATION_TYPE":"U","MEAN_MOTION":15.6716401,"ECCENTRICITY":0.0004023,"INCLINATION":97.622,"RA_OF_ASC_NODE":339.2151,"ARG_OF_PERICENTER":243.2613,"MEAN_ANOMALY":116.8236,"EPHEMERIS_TYPE":0,"NORAD_CAT_ID":54251,"ELEMENT_SET_NO":999,"REV_AT_EPOCH":20352,"BSTAR":0.00045836,"MEAN_MOTION_DOT":0.00049092,"MEAN_MOTION_DDOT":0}]}
